ASNARO-2                
1 43152U 18007A   26067.75441303  .00013989  00000+0  60725-3 0  9991
2 43152  97.4030  76.2222 0002085  88.5161 271.6314 15.22434719452132
STARLINK-31096          
1 58592U 23200D   26068.29383499  .00044809  00000+0  18692-2 0  9997
2 58592  43.0024 171.6597 0002152 311.2907  48.7758 15.22976409123542
